STARLINK-5524           
1 56474U 23064AC  26068.54720615 -.00001044  00000+0 -79721-4 0  9993
2 56474  69.9998 124.9922 0003678 267.1940  92.8798 14.98314489155713
ION SCV-022             
1 66682U 25276S   26068.74520243  .00001950  00000+0  17277-3 0  9990
2 66682  97.5376 142.9780 0004539 154.7099 205.4346 14.97347265 15192
